NORAD_CAT_ID,OBJECT_NAME,OBJECT_TYPE,EPOCH,MEAN_MOTION,ECCENTRICITY,INCLINATION,RA_OF_ASC_NODE,ARG_OF_PERICENTER,MEAN_ANOMALY,BSTAR,MEAN_MOTION_DOT,MEAN_MOTION_DDOT,TLE_LINE0,TLE_LINE1,TLE_LINE2,SEMIMAJOR_AXIS,PERIOD,APOGEE,PERIGEE,DECAYED
52555.0,STARLINK-3949,PAYLOAD,2022-12-02 00:23:14,15.08838167,0.0001992,53.2196,87.73100000000002,46.2689,313.8468,9.4244e-05,1.212e-05,0.0,0 STARLINK-3949,1 52555U 22051Y   22336.01613805  .00001212  00000-0  94244-4 0  9995,2 52555  53.2196  87.7310 0001992  46.2689 313.8468 15.08838167 31310,6917.886,95.438,541.129,538.373,0.0
52555.0,STARLINK-3949,PAYLOAD,2022-12-02 08:20:09,15.08852483,0.000194,53.2195,86.2441,44.6369,315.4779,1.1241e-05,-1.09e-06,0.0,0 STARLINK-3949,1 52555U 22051Y   22336.34733160 -.00000109  00000-0  11241-4 0  9999,2 52555  53.2195  86.2441 0001940  44.6369 315.4779 15.08852483 31363,6917.842,95.437,541.049,538.365,0.0
52555.0,STARLINK-3949,PAYLOAD,2022-12-02 14:41:42,15.08845018,0.0001977,53.2199,85.0545,47.1381,312.9777,2.6324e-05,1.31e-06,0.0,0 STARLINK-3949,1 52555U 22051Y   22336.61229497  .00000131  00000-0  26324-4 0  9994,2 52555  53.2199  85.0545 0001977  47.1381 312.9777 15.08845018 31402,6917.865,95.437,541.0980000000002,538.362,0.0
52555.0,STARLINK-3949,PAYLOAD,2022-12-03 06:35:34,15.08830594,0.0002081,53.2196,82.0813,44.734,315.382,4.7704e-05,4.71e-06,0.0,0 STARLINK-3949,1 52555U 22051Y   22337.27470492  .00000471  00000-0  47704-4 0  9992,2 52555  53.2196  82.0813 0002081  44.7340 315.3820 15.08830594 31509,6917.909000000002,95.438,541.214,538.335,0.0
52555.0,STARLINK-3949,PAYLOAD,2022-12-03 12:57:07,15.08830746,0.0002109,53.22,80.8919,44.4657,315.6504,2.6385e-05,1.32e-06,0.0,0 STARLINK-3949,1 52555U 22051Y   22337.53966691  .00000132  00000-0  26385-4 0  9998,2 52555  53.2200  80.8919 0002109  44.4657 315.6504 15.08830746 31474,6917.909000000002,95.438,541.2330000000002,538.315,0.0
52555.0,STARLINK-3949,PAYLOAD,2022-12-03 14:32:30,15.08831769,0.0002177,53.2208,80.595,42.7607,317.3555,4.1663e-05,3.75e-06,0.0,0 STARLINK-3949,1 52555U 22051Y   22337.60590618  .00000375  00000-0  41663-4 0  9993,2 52555  53.2208  80.5950 0002177  42.7607 317.3555 15.08831769 31487,6917.906,95.438,541.2769999999998,538.265,0.0
52555.0,STARLINK-3949,PAYLOAD,2022-12-04 00:04:48,15.08841543,0.0002169,53.2206,78.8106,45.5669,314.55,6.679e-05,7.75e-06,0.0,0 STARLINK-3949,1 52555U 22051Y   22338.00333954  .00000775  00000-0  66790-4 0  9998,2 52555  53.2206  78.8106 0002169  45.5669 314.5500 15.08841543 31613,6917.876,95.437,541.241,538.24,0.0
52555.0,STARLINK-3949,PAYLOAD,2022-12-04 12:47:54,15.08838121,0.0001908,53.2198,76.4313,42.6929,317.4211,-4.0446e-05,-9.32e-06,0.0,0 STARLINK-3949,1 52555U 22051Y   22338.53326424 -.00000932  00000-0 -40446-4 0  9997,2 52555  53.2198  76.4313 0001908  42.6929 317.4211 15.08838121 31624,6917.886,95.438,541.071,538.431,0.0
52555.0,STARLINK-3949,PAYLOAD,2022-12-04 14:23:17,15.0883554,0.0002041,53.2206,76.1362,45.0736,315.0421,1.035e-05,-1.24e-06,0.0,0 STARLINK-3949,1 52555U 22051Y   22338.59950483 -.00000124  00000-0  10350-4 0  9994,2 52555  53.2206  76.1362 0002041  45.0736 315.0421 15.08835540 31705,6917.894,95.438,541.1709999999998,538.347,0.0
52555.0,STARLINK-3949,PAYLOAD,2022-12-04 19:09:26,15.08842474,0.0002013,53.2199,75.2423,44.6023,315.5131,5.3145e-05,5.58e-06,0.0,0 STARLINK-3949,1 52555U 22051Y   22338.79821907  .00000558  00000-0  53145-4 0  9993,2 52555  53.2199  75.2423 0002013  44.6023 315.5131 15.08842474 31669,6917.873000000001,95.437,541.13,538.345,0.0
52555.0,STARLINK-3949,PAYLOAD,2022-12-04 23:55:35,15.08844665,0.0002123,53.2204,74.3495,45.7956,314.321,0.00012089,1.637e-05,0.0,0 STARLINK-3949,1 52555U 22051Y   22338.99693547  .00001637  00000-0  12089-3 0  9992,2 52555  53.2204  74.3495 0002123  45.7956 314.3210 15.08844665 31764,6917.866,95.437,541.2,538.262,0.0
52555.0,STARLINK-3949,PAYLOAD,2022-12-05 12:38:40,15.08844447,0.0002289,53.2188,71.9717,47.0177,313.1007,0.00013648,1.885e-05,0.0,0 STARLINK-3949,1 52555U 22051Y   22339.52685482  .00001885  00000-0  13648-3 0  9998,2 52555  53.2188  71.9717 0002289  47.0177 313.1007 15.08844447 31778,6917.8669999999975,95.437,541.315,538.148,0.0
52555.0,STARLINK-3949,PAYLOAD,2022-12-05 19:00:12,15.08847758,0.0002182,53.2187,70.7826,48.2713,311.8466,9.8434e-05,1.279e-05,0.0,0 STARLINK-3949,1 52555U 22051Y   22339.79181276  .00001279  00000-0  98434-4 0  9993,2 52555  53.2187  70.7826 0002182  48.2713 311.8466 15.08847758 31813,6917.857,95.437,541.231,538.212,0.0
52555.0,STARLINK-3949,PAYLOAD,2022-12-06 06:07:54,15.08847808,0.0002208,53.2197,68.7018,45.3749,314.7423,0.000133,1.83e-05,0.0,0 STARLINK-3949,1 52555U 22051Y   22340.25548955  .00001830  00000-0  13300-3 0  9998,2 52555  53.2197  68.7018 0002208  45.3749 314.7423 15.08847808 31956,6917.857,95.437,541.249,538.194,0.0
52555.0,STARLINK-3949,PAYLOAD,2022-12-06 12:29:28,15.088305599999998,0.0002065,53.2213,67.515,27.2823,332.8278,-1.4867e-05,-5.25e-06,0.0,0 STARLINK-3949,1 52555U 22051Y   22340.52046484 -.00000525  00000-0 -14867-4 0  9990,2 52555  53.2213  67.5150 0002065  27.2823 332.8278 15.08830560 31992,6917.909000000002,95.438,541.203,538.346,0.0
52555.0,STARLINK-3949,PAYLOAD,2022-12-06 17:15:37,15.08829131,0.0002023,53.2201,66.6207,33.7227,326.3893,-7.9728e-05,-1.556e-05,0.0,0 STARLINK-3949,1 52555U 22051Y   22340.71918850 -.00001556  00000-0 -79728-4 0  9998,2 52555  53.2201  66.6207 0002023  33.7227 326.3893 15.08829131 31955,6917.9140000000025,95.438,541.178,538.379,0.0
52555.0,STARLINK-3949,PAYLOAD,2022-12-07 17:06:24,15.08838594,0.0002207,53.2199,62.1609,39.7695,320.3458,-3.3402e-05,-8.2e-06,0.0,0 STARLINK-3949,1 52555U 22051Y   22341.71278574 -.00000820  00000-0 -33402-4 0  9993,2 52555  53.2199  62.1609 0002207  39.7695 320.3458 15.08838594 32176,6917.885,95.438,541.276,538.2230000000002,0.0
52555.0,STARLINK-3949,PAYLOAD,2022-12-08 05:49:30,15.08823297,0.0002392,53.2206,59.7831,9.4081,350.6956,-1.7087e-05,-5.6e-06,0.0,0 STARLINK-3949,1 52555U 22051Y   22342.24271188 -.00000560  00000-0 -17087-4 0  9998,2 52555  53.2206  59.7831 0002392   9.4081 350.6956 15.08823297 32254,6917.931,95.439,541.451,538.1419999999998,0.0
52555.0,STARLINK-3949,PAYLOAD,2022-12-08 12:11:01,15.08838964,0.0002059,53.2214,58.5939,33.2796,326.8325,9.9007e-05,1.288e-05,0.0,0 STARLINK-3949,1 52555U 22051Y   22342.50765979  .00001288  00000-0  99007-4 0  9991,2 52555  53.2214  58.5939 0002059  33.2796 326.8325 15.08838964 32226,6917.884,95.438,541.173,538.3240000000002,0.0
52555.0,STARLINK-3949,PAYLOAD,2022-12-08 21:43:18,15.08861091,0.0001354,53.2207,56.8106,28.3388,331.7678,0.00032568,4.902e-05,0.0,0 STARLINK-3949,1 52555U 22051Y   22342.90507711  .00004902  00000-0  32568-3 0  9997,2 52555  53.2207  56.8106 0001354  28.3388 331.7678 15.08861091 32351,6917.816,95.436,540.618,538.744,0.0
52555.0,STARLINK-3949,PAYLOAD,2022-12-09 13:37:13,15.08818102,0.0002105,53.2204,53.838,32.9618,327.1506,-5.8816e-05,-1.224e-05,0.0,0 STARLINK-3949,1 52555U 22051Y   22343.56751979 -.00001224  00000-0 -58816-4 0  9998,2 52555  53.2204  53.8380 0002105  32.9618 327.1506 15.08818102 32456,6917.946999999999,95.439,541.269,538.356,0.0
52555.0,STARLINK-3949,PAYLOAD,2022-12-10 11:52:37,15.08829393,0.0002056,53.2203,49.6705,36.0583,324.0548,-3.9367e-05,-9.15e-06,0.0,0 STARLINK-3949,1 52555U 22051Y   22344.49488150 -.00000915  00000-0 -39367-4 0  9995,2 52555  53.2203  49.6705 0002056  36.0583 324.0548 15.08829393 32591,6917.913000000001,95.438,541.2,538.355,0.0
52555.0,STARLINK-3949,PAYLOAD,2022-12-11 05:21:51,15.08841746,0.0001998,53.221,46.4,37.449,322.6641,4.374399999999999e-05,4.08e-06,0.0,0 STARLINK-3949,1 52555U 22051Y   22345.22351271  .00000408  00000-0  43744-4 0  9999,2 52555  53.2210  46.4000 0001998  37.4490 322.6641 15.08841746 32705,6917.875,95.437,541.122,538.3580000000002,0.0
52555.0,STARLINK-3949,PAYLOAD,2022-12-11 11:43:24,15.08827391,0.0002166,53.2208,45.21100000000001,35.4998,324.6138,0.00020169,2.922e-05,0.0,0 STARLINK-3949,1 52555U 22051Y   22345.48847960  .00002922  00000-0  20169-3 0  9990,2 52555  53.2208  45.2110 0002166  35.4998 324.6138 15.08827391 32747,6917.919,95.438,541.2819999999998,538.286,0.0
52555.0,STARLINK-3949,PAYLOAD,2022-12-12 13:09:34,15.08842422,0.000228,53.2209,40.4536,36.2226,323.8921,0.00020296,2.944e-05,0.0,0 STARLINK-3949,1 52555U 22051Y   22346.54831668  .00002944  00000-0  20296-3 0  9991,2 52555  53.2209  40.4536 0002280  36.2226 323.8921 15.08842422 32908,6917.873000000001,95.437,541.315,538.161,0.0
52555.0,STARLINK-3949,PAYLOAD,2022-12-13 03:28:03,15.08837133,0.0002546,53.221,37.7798,23.5271,336.5837,0.00015735,2.217e-05,0.0,0 STARLINK-3949,1 52555U 22051Y   22347.14447937  .00002217  00000-0  15735-3 0  9995,2 52555  53.2210  37.7798 0002546  23.5271 336.5837 15.08837133 32992,6917.889,95.438,541.515,537.993,0.0
52555.0,STARLINK-3949,PAYLOAD,2022-12-13 09:49:35,15.08842252,0.0002248,53.2211,36.5881,36.3244,323.79,7.252699999999999e-05,8.66e-06,0.0,0 STARLINK-3949,1 52555U 22051Y   22347.40943851  .00000866  00000-0  72527-4 0  9991,2 52555  53.2211  36.5881 0002248  36.3244 323.7900 15.08842252 32968,6917.874,95.437,541.294,538.183,0.0
52555.0,STARLINK-3949,PAYLOAD,2022-12-13 14:35:44,15.08840571,0.000214,53.2193,35.6952,36.5802,323.5336,7.1487e-05,8.5e-06,0.0,0 STARLINK-3949,1 52555U 22051Y   22347.60815854  .00000850  00000-0  71487-4 0  9991,2 52555  53.2193  35.6952 0002140  36.5802 323.5336 15.08840571 32995,6917.879,95.438,541.224,538.263,0.0
52555.0,STARLINK-3949,PAYLOAD,2022-12-14 09:40:22,15.0884313,0.0002346,53.2195,32.126999999999995,32.6962,327.4175,-2.3506e-05,-6.62e-06,0.0,0 STARLINK-3949,1 52555U 22051Y   22348.40303723 -.00000662  00000-0 -23506-4 0  9999,2 52555  53.2195  32.1270 0002346  32.6962 327.4175 15.08843130 33184,6917.871,95.437,541.359,538.113,0.0
